{"type": "FeatureCollection", "name": "pontos_equipamentos", "features": [{"type": "Feature", "geometry": {"coordinates": [-55.815241955662565, -29.798541713656757], "type": "Point"}, "properties": {"ZONA": "PRA-01-01", "cidade": "ALG", "key_qgis": "ALG_644415", "obra": "ALG_PRA-01-01", "layer_name": "alg_isovalves_prop"}}, {"type": "Feature", "geometry": {"coordinates": [-55.81651789737633, -29.79844182494493], "type": "Point"}, "properties": {"ZONA": "PRA-01-01", "cidade": "ALG", "key_qgis": "ALG_644419", "obra": "ALG_PRA-01-01", "layer_name": "alg_isovalves_prop"}}, {"type": "Feature", "geometry": {"coordinates": [-55.81680217180004, -29.80183664385644], "type": "Point"}, "properties": {"ZONA": "PRA-01-01", "cidade": "ALG", "key_qgis": "ALG_644763", "obra": "ALG_PRA-01-01", "layer_name": "alg_isovalves_prop"}}, {"type": "Feature", "geometry": {"coordinates": [-55.81165036127446, -29.79189706644527], "type": "Point"}, "properties": {"ZONA": "VGR-01", "cidade": "ALG", "key_qgis": "ALG_3380", "obra": "ALG_VGR-01", "layer_name": "alg_tcv_prop"}}, {"type": "Feature", "geometry": {"coordinates": [-55.81735901612397, -29.796686503993687], "type": "Point"}, "properties": {"ZONA": "PRA-01-01", "cidade": "ALG", "key_qgis": "ALG_6903", "obra": "ALG_PRA-01-01", "layer_name": "alg_tcv_prop"}}, {"type": "Feature", "geometry": {"coordinates": [-55.813266818351465, -29.800624356616833], "type": "Point"}, "properties": {"ZONA": "PRA-01-01", "cidade": "ALG", "key_qgis": "ALG_277581", "obra": "ALG_PRA-01-01", "layer_name": "alg_tcv_prop"}}, {"type": "Feature", "geometry": {"coordinates": [-55.81630456161017, -29.803117698710093], "type": "Point"}, "properties": {"ZONA": "PRA-01-01", "cidade": "ALG", "key_qgis": "ALG_644756", "obra": "ALG_PRA-01-01", "layer_name": "alg_vrps_prop"}}, {"type": "Feature", "geometry": {"coordinates": [-55.811613638775576, -29.791896926315694], "type": "Point"}, "properties": {"ZONA": "VGR-01", "cidade": "ALG", "key_qgis": "ALG_644790", "obra": "ALG_VGR-01", "layer_name": "alg_vrps_prop"}}, {"type": "Feature", "geometry": {"coordinates": [-55.77235240988883, -29.800734155161248], "type": "Point"}, "properties": {"ZONA": "COH-01", "cidade": "ALG", "key_qgis": "ALG_644813", "obra": "ALG_COH-01", "layer_name": "alg_vrps_prop"}}]}