{"type": "FeatureCollection", "name": "propostas_itens", "features": [{"type": "Feature", "geometry": {"coordinates": [-55.815241955662565, -29.798541713656757], "type": "Point"}, "properties": {"TIPO": null, "cidade": "ALG", "key_qgis": "ALG_644415", "obra": "ALG_sem_zona", "layer_name": "alg_isovalves_prop"}}, {"type": "Feature", "geometry": {"coordinates": [-55.81651789737633, -29.79844182494493], "type": "Point"}, "properties": {"TIPO": null, "cidade": "ALG", "key_qgis": "ALG_644419", "obra": "ALG_sem_zona", "layer_name": "alg_isovalves_prop"}}, {"type": "Feature", "geometry": {"coordinates": [-55.81680217180004, -29.80183664385644], "type": "Point"}, "properties": {"TIPO": null, "cidade": "ALG", "key_qgis": "ALG_644763", "obra": "ALG_sem_zona", "layer_name": "alg_isovalves_prop"}}, {"type": "Feature", "geometry": {"coordinates": [[[-55.81762694312363, -29.801578268196323], [-55.81758243165888, -29.801589746684527], [-55.817593981289725, -29.801619205622938]]], "type": "MultiLineString"}, "properties": {"ZONA": "PRA-01-01", "cidade": "ALG", "key_qgis": "ALG_644411", "obra": "ALG_PRA-01-01", "tipo": "rede", "bypass": 0, "layer_name": "alg_redes_prop"}}, {"type": "Feature", "geometry": {"coordinates": [[[-55.816285932553946, -29.803143683019673], [-55.81615444354882, -29.80313213650135], [-55.81308582120833, -29.80055535673952], [-55.813100595556065, -29.800484501019582]]], "type": "MultiLineString"}, "properties": {"ZONA": "PRA-01-01", "cidade": "ALG", "key_qgis": "ALG_644726", "obra": "ALG_PRA-01-01", "tipo": "rede", "bypass": 0, "layer_name": "alg_redes_prop"}}, {"type": "Feature", "geometry": {"coordinates": [[[-55.81630456161017, -29.803117698710093], [-55.81632060741718, -29.803114755310432], [-55.81634156485889, -29.80313033580601]]], "type": "MultiLineString"}, "properties": {"ZONA": "PRA-01-01", "cidade": "ALG", "key_qgis": "ALG_644758", "obra": "ALG_PRA-01-01", "tipo": "rede", "bypass": 0, "layer_name": "alg_redes_prop"}}, {"type": "Feature", "geometry": {"coordinates": [[[-55.811613638775576, -29.791896926315694], [-55.81163177449958, -29.791881710939027], [-55.81166197355705, -29.791886764019527]]], "type": "MultiLineString"}, "properties": {"ZONA": "VGR-01", "cidade": "ALG", "key_qgis": "ALG_644792", "obra": "ALG_VGR-01", "tipo": "rede", "bypass": 0, "layer_name": "alg_redes_prop"}}, {"type": "Feature", "geometry": {"coordinates": [[[-55.812340279556615, -29.791268231019536], [-55.81237387451397, -29.79126678237401], [-55.81279888041356, -29.791621736020986], [-55.812799534556326, -29.791648991019535]]], "type": "MultiLineString"}, "properties": {"ZONA": "VGR-01", "cidade": "ALG", "key_qgis": "ALG_644795", "obra": "ALG_VGR-01", "tipo": "rede", "bypass": 0, "layer_name": "alg_redes_prop"}}, {"type": "Feature", "geometry": {"coordinates": [[[-55.77235240988883, -29.800734155161248], [-55.77236499249228, -29.800734272037843], [-55.77236675472854, -29.80074460599998]]], "type": "MultiLineString"}, "properties": {"ZONA": "COH-01", "cidade": "ALG", "key_qgis": "ALG_644815", "obra": "ALG_COH-01", "tipo": "rede", "bypass": 0, "layer_name": "alg_redes_prop"}}, {"type": "Feature", "geometry": {"coordinates": [-55.81165036127446, -29.79189706644527], "type": "Point"}, "properties": {"ZONA": "VGR-01", "cidade": "ALG", "key_qgis": "ALG_3380", "obra": "ALG_VGR-01", "layer_name": "alg_tcv_prop"}}, {"type": "Feature", "geometry": {"coordinates": [-55.81735901612397, -29.796686503993687], "type": "Point"}, "properties": {"ZONA": "PRA-01-01", "cidade": "ALG", "key_qgis": "ALG_6903", "obra": "ALG_PRA-01-01", "layer_name": "alg_tcv_prop"}}, {"type": "Feature", "geometry": {"coordinates": [-55.813266818351465, -29.800624356616833], "type": "Point"}, "properties": {"ZONA": "PRA-01-01", "cidade": "ALG", "key_qgis": "ALG_277581", "obra": "ALG_PRA-01-01", "layer_name": "alg_tcv_prop"}}, {"type": "Feature", "geometry": {"coordinates": [-55.81630456161017, -29.803117698710093], "type": "Point"}, "properties": {"ZONA": "PRA-01-01", "cidade": "ALG", "key_qgis": "ALG_644756", "obra": "ALG_PRA-01-01", "layer_name": "alg_vrps_prop"}}, {"type": "Feature", "geometry": {"coordinates": [-55.811613638775576, -29.791896926315694], "type": "Point"}, "properties": {"ZONA": "VGR-01", "cidade": "ALG", "key_qgis": "ALG_644790", "obra": "ALG_VGR-01", "layer_name": "alg_vrps_prop"}}, {"type": "Feature", "geometry": {"coordinates": [-55.77235240988883, -29.800734155161248], "type": "Point"}, "properties": {"ZONA": "COH-01", "cidade": "ALG", "key_qgis": "ALG_644813", "obra": "ALG_COH-01", "layer_name": "alg_vrps_prop"}}]}